{"fetched_at":"2026-03-29T02:12:04Z","count":15717,"tles":[{"name":"STARLINK-31666","line1":"1 59572U 24076J   26087.52537436  .00001167  00000+0  51927-4 0  9997","line2":"2 59572  43.0047 255.6520 0001890 270.5992  89.4643 15.27588786109466","category":"Starlink"}]}