{
  "norad_id": 59572,
  "name": "STARLINK-31666",
  "history": [
    {
      "epoch": "2026-03-28T12:36:32.344704Z",
      "apogee_km": 484.3195469208813,
      "perigee_km": 481.7260285211223,
      "latitude_deg": -7.191785261769824e-06,
      "longitude_deg": -119.42734564735332,
      "height_km": 482.78684308857277,
      "semi_major_axis_km": 6861.1597877210015,
      "eccentricity": 0.000189,
      "inclination_deg": 43.0047,
      "raan_deg": 255.652,
      "arg_perigee_deg": 270.5992,
      "mean_anomaly_deg": 89.4643,
      "mean_motion_rev_day": 15.27588786
    }
  ]
}